EAGLET-I                
1 43790U 18099AJ  26068.68676861  .00006017  00000+0  35262-3 0  9994
2 43790  97.4369 120.9821 0010486 336.8524  23.2233 15.12108144397298
STARLINK-3877           
1 52355U 22045AA  26068.62268676 -.00000672  00000+0 -24170-4 0  9992
2 52355  53.2181 199.4243 0001192  84.7847 275.3281 15.08839590215773
